{
  "type": "FeatureCollection",
  "features": [
    {
      "type": "Feature",
      "properties": {
        "norad_id": 31339,
        "name": "FENGYUN 1C DEB",
        "group": "fengyun-1c-debris",
        "lat": -45.19665390362873,
        "lon": 177.4865231120933,
        "alt_km": 858.869192651975,
        "timestamp": "2025-12-15T19:00:45.638652+00:00",
        "meta_object_name": "FENGYUN 1C DEB",
        "meta_object_id": "1999-025BQT",
        "meta_epoch": "2025-12-14T07:55:52.192416",
        "meta_mean_motion": 14.12177582,
        "meta_eccentricity": 0.00742774,
        "meta_inclination": 98.7142,
        "meta_ra_of_asc_node": 4.9493,
        "meta_arg_of_pericenter": 320.6656,
        "meta_mean_anomaly": 38.9135,
        "meta_ephemeris_type": 0,
        "meta_classification_type": "U",
        "meta_norad_cat_id": 31339,
        "meta_element_set_no": 999,
        "meta_rev_at_epoch": 95700,
        "meta_bstar": 0.0011951594,
        "meta_mean_motion_dot": 2.21e-05,
        "meta_mean_motion_ddot": 0,
        "tle_line1": "1 31339U 99025BQT 25348.33046519  .00002210  00000+0  11952-2 0  9991",
        "tle_line2": "2 31339  98.7142   4.9493 0074277 320.6656  38.9135 14.12177582957004"
      },
      "geometry": {
        "type": "Point",
        "coordinates": [
          177.4865231120933,
          -45.19665390362873
        ]
      }
    },
    {
      "type": "Feature",
      "properties": {
        "norad_id": 31341,
        "name": "FENGYUN 1C DEB",
        "group": "fengyun-1c-debris",
        "lat": -37.98929645300582,
        "lon": 39.024622397145436,
        "alt_km": 684.9228144009239,
        "timestamp": "2025-12-15T19:00:45.638663+00:00",
        "meta_object_name": "FENGYUN 1C DEB",
        "meta_object_id": "1999-025BQV",
        "meta_epoch": "2025-12-14T02:07:51.875904",
        "meta_mean_motion": 14.53342821,
        "meta_eccentricity": 0.00530045,
        "meta_inclination": 99.5562,
        "meta_ra_of_asc_node": 29.5245,
        "meta_arg_of_pericenter": 342.6952,
        "meta_mean_anomaly": 71.6834,
        "meta_ephemeris_type": 0,
        "meta_classification_type": "U",
        "meta_norad_cat_id": 31341,
        "meta_element_set_no": 999,
        "meta_rev_at_epoch": 97638,
        "meta_bstar": 0.0014582275,
        "meta_mean_motion_dot": 6.12e-05,
        "meta_mean_motion_ddot": 0,
        "tle_line1": "1 31341U 99025BQV 25348.08879486  .00006120  00000+0  14582-2 0  9999",
        "tle_line2": "2 31341  99.5562  29.5245 0053004 342.6952  71.6834 14.53342821976385"
      },
      "geometry": {
        "type": "Point",
        "coordinates": [
          39.024622397145436,
          -37.98929645300582
        ]
      }
    },
    {
      "type": "Feature",
      "properties": {
        "norad_id": 31342,
        "name": "FENGYUN 1C DEB",
        "group": "fengyun-1c-debris",
        "lat": -80.53983389307463,
        "lon": 55.40010878133564,
        "alt_km": 731.9214072263658,
        "timestamp": "2025-12-15T19:00:45.638685+00:00",
        "meta_object_name": "FENGYUN 1C DEB",
        "meta_object_id": "1999-025BQW",
        "meta_epoch": "2025-12-12T02:51:51.280992",
        "meta_mean_motion": 14.36767896,
        "meta_eccentricity": 0.01114558,
        "meta_inclination": 98.9351,
        "meta_ra_of_asc_node": 302.3535,
        "meta_arg_of_pericenter": 221.1783,
        "meta_mean_anomaly": 138.0954,
        "meta_ephemeris_type": 0,
        "meta_classification_type": "U",
        "meta_norad_cat_id": 31342,
        "meta_element_set_no": 999,
        "meta_rev_at_epoch": 97882,
        "meta_bstar": 0.00020820544,
        "meta_mean_motion_dot": 6.09e-06,
        "meta_mean_motion_ddot": 0,
        "tle_line1": "1 31342U 99025BQW 25346.11934353  .00000609  00000+0  20821-3 0  9997",
        "tle_line2": "2 31342  98.9351 302.3535 0111455 221.1783 138.0954 14.36767896978823"
      },
      "geometry": {
        "type": "Point",
        "coordinates": [
          55.40010878133564,
          -80.53983389307463
        ]
      }
    },
    {
      "type": "Feature",
      "properties": {
        "norad_id": 31346,
        "name": "FENGYUN 1C DEB",
        "group": "fengyun-1c-debris",
        "lat": -1.4300903140520942,
        "lon": 137.01525881580605,
        "alt_km": 612.1437244101107,
        "timestamp": "2025-12-15T19:00:45.638696+00:00",
        "meta_object_name": "FENGYUN 1C DEB",
        "meta_object_id": "1999-025BRA",
        "meta_epoch": "2025-12-14T15:11:47.444064",
        "meta_mean_motion": 15.11027648,
        "meta_eccentricity": 0.01103243,
        "meta_inclination": 98.8654,
        "meta_ra_of_asc_node": 315.8965,
        "meta_arg_of_pericenter": 9.4211,
        "meta_mean_anomaly": 350.9049,
        "meta_ephemeris_type": 0,
        "meta_classification_type": "U",
        "meta_norad_cat_id": 31346,
        "meta_element_set_no": 999,
        "meta_rev_at_epoch": 99524,
        "meta_bstar": 0.0010473949,
        "meta_mean_motion_dot": 0.00020218,
        "meta_mean_motion_ddot": 0,
        "tle_line1": "1 31346U 99025BRA 25348.63318801  .00020218  00000+0  10474-2 0  9994",
        "tle_line2": "2 31346  98.8654 315.8965 0110324   9.4211 350.9049 15.11027648995248"
      },
      "geometry": {
        "type": "Point",
        "coordinates": [
          137.01525881580605,
          -1.4300903140520942
        ]
      }
    },
    {
      "type": "Feature",
      "properties": {
        "norad_id": 31348,
        "name": "FENGYUN 1C DEB",
        "group": "fengyun-1c-debris",
        "lat": 75.30417473464026,
        "lon": -96.82603672746482,
        "alt_km": 747.1516651765178,
        "timestamp": "2025-12-15T19:00:45.638706+00:00",
        "meta_object_name": "FENGYUN 1C DEB",
        "meta_object_id": "1999-025BRC",
        "meta_epoch": "2025-12-14T08:11:43.094400",
        "meta_mean_motion": 14.34057653,
        "meta_eccentricity": 0.00357582,
        "meta_inclination": 99.1186,
        "meta_ra_of_asc_node": 299.4079,
        "meta_arg_of_pericenter": 61.1218,
        "meta_mean_anomaly": 91.853,
        "meta_ephemeris_type": 0,
        "meta_classification_type": "U",
        "meta_norad_cat_id": 31348,
        "meta_element_set_no": 999,
        "meta_rev_at_epoch": 96272,
        "meta_bstar": 0.0015205829,
        "meta_mean_motion_dot": 4.234e-05,
        "meta_mean_motion_ddot": 0,
        "tle_line1": "1 31348U 99025BRC 25348.34147100  .00004234  00000+0  15206-2 0  9994",
        "tle_line2": "2 31348  99.1186 299.4079 0035758  61.1218  91.8530 14.34057653962722"
      },
      "geometry": {
        "type": "Point",
        "coordinates": [
          -96.82603672746482,
          75.30417473464026
        ]
      }
    },
    {
      "type": "Feature",
      "properties": {
        "norad_id": 31350,
        "name": "FENGYUN 1C DEB",
        "group": "fengyun-1c-debris",
        "lat": -11.73596678831202,
        "lon": 163.79948023578936,
        "alt_km": 809.0432091176881,
        "timestamp": "2025-12-15T19:00:45.638717+00:00",
        "meta_object_name": "FENGYUN 1C DEB",
        "meta_object_id": "1999-025BRE",
        "meta_epoch": "2025-12-08T18:02:03.920064",
        "meta_mean_motion": 14.34830277,
        "meta_eccentricity": 0.00667483,
        "meta_inclination": 98.9604,
        "meta_ra_of_asc_node": 154.6193,
        "meta_arg_of_pericenter": 136.9079,
        "meta_mean_anomaly": 223.7357,
        "meta_ephemeris_type": 0,
        "meta_classification_type": "U",
        "meta_norad_cat_id": 31350,
        "meta_element_set_no": 999,
        "meta_rev_at_epoch": 70196,
        "meta_bstar": 0.0010632143,
        "meta_mean_motion_dot": 3.049e-05,
        "meta_mean_motion_ddot": 0,
        "tle_line1": "1 31350U 99025BRE 25342.75143426  .00003049  00000+0  10632-2 0  9994",
        "tle_line2": "2 31350  98.9604 154.6193 0066748 136.9079 223.7357 14.34830277701966"
      },
      "geometry": {
        "type": "Point",
        "coordinates": [
          163.79948023578936,
          -11.73596678831202
        ]
      }
    },
    {
      "type": "Feature",
      "properties": {
        "norad_id": 31351,
        "name": "FENGYUN 1C DEB",
        "group": "fengyun-1c-debris",
        "lat": -81.16153797308523,
        "lon": 71.89304585237888,
        "alt_km": 923.5724554507924,
        "timestamp": "2025-12-15T19:00:45.638727+00:00",
        "meta_object_name": "FENGYUN 1C DEB",
        "meta_object_id": "1999-025BRF",
        "meta_epoch": "2025-12-05T22:12:04.612896",
        "meta_mean_motion": 14.06922487,
        "meta_eccentricity": 0.00937925,
        "meta_inclination": 98.7943,
        "meta_ra_of_asc_node": 326.89,
        "meta_arg_of_pericenter": 70.3082,
        "meta_mean_anomaly": 290.8177,
        "meta_ephemeris_type": 0,
        "meta_classification_type": "U",
        "meta_norad_cat_id": 31351,
        "meta_element_set_no": 999,
        "meta_rev_at_epoch": 61279,
        "meta_bstar": 0.00046990462,
        "meta_mean_motion_dot": 7.73e-06,
        "meta_mean_motion_ddot": 0,
        "tle_line1": "1 31351U 99025BRF 25339.92505339  .00000773  00000+0  46990-3 0  9993",
        "tle_line2": "2 31351  98.7943 326.8900 0093792  70.3082 290.8177 14.06922487612795"
      },
      "geometry": {
        "type": "Point",
        "coordinates": [
          71.89304585237888,
          -81.16153797308523
        ]
      }
    }
  ]
}